{"type": "FeatureCollection", "features": [ {"type": "Feature", "properties": {"norad_id": 43683, "name": "BEIDOU-3 G1 (C59)", "group": "gnss", "lat": 0.20526847592936687, "lon": 107.19352496350123, "alt_km": 35781.976532773784, "timestamp": "2025-12-06T16:45:42.966331+00:00", "meta": {"OBJECT_NAME": "BEIDOU-3 G1 (C59)", "OBJECT_ID": "2018-085A", "EPOCH": "2025-12-06T07:29:02.601024", "MEAN_MOTION": 1.00272704, "ECCENTRICITY": 0.00018981, "INCLINATION": 2.5907, "RA_OF_ASC_NODE": 103.1424, "ARG_OF_PERICENTER": 64.9697, "MEAN_ANOMALY": 159.5619, "EPHEMERIS_TYPE": 0, "CLASSIFICATION_TYPE": "U", "NORAD_CAT_ID": 43683, "ELEMENT_SET_NO": 999, "REV_AT_EPOCH": 2612, "BSTAR": 0, "MEAN_MOTION_DOT": -2.7e-06, "MEAN_MOTION_DDOT": 0}, "tle": {"line1": "1 43683U 18085A   25340.31183566 -.00000270  00000+0  00000+0 0  9991", "line2": "2 43683   2.5907 103.1424 0001898  64.9697 159.5619  1.00272704 26121"}}, "geometry": {"type": "Point", "coordinates": [107.19352496350123, 0.20526847592936687]}}, {"type": "Feature", "properties": {"norad_id": 43687, "name": "COSMOS 2529 (757)", "group": "gnss", "lat": -55.68685680096113, "lon": 154.19490560128756, "alt_km": 19121.590841013454, "timestamp": "2025-12-06T16:45:42.966347+00:00", "meta": {"OBJECT_NAME": "COSMOS 2529 (757)", "OBJECT_ID": "2018-086A", "EPOCH": "2025-12-03T00:44:36.468960", "MEAN_MOTION": 2.13101888, "ECCENTRICITY": 0.00072932, "INCLINATION": 64.2917, "RA_OF_ASC_NODE": 199.2166, "ARG_OF_PERICENTER": 254.4618, "MEAN_ANOMALY": 105.5545, "EPHEMERIS_TYPE": 0, "CLASSIFICATION_TYPE": "U", "NORAD_CAT_ID": 43687, "ELEMENT_SET_NO": 999, "REV_AT_EPOCH": 5510, "BSTAR": 0, "MEAN_MOTION_DOT": 1.06e-06, "MEAN_MOTION_DDOT": 0}, "tle": {"line1": "1 43687U 18086A   25337.03097765  .00000106  00000+0  00000+0 0  9993", "line2": "2 43687  64.2917 199.2166 0007293 254.4618 105.5545  2.13101888 55102"}}, "geometry": {"type": "Point", "coordinates": [154.19490560128756, -55.68685680096113]}}, {"type": "Feature", "properties": {"norad_id": 43706, "name": "BEIDOU-3 M17 (C36)", "group": "gnss", "lat": 51.79479372810508, "lon": -57.81952300341484, "alt_km": 21538.595617174404, "timestamp": "2025-12-06T16:45:42.966359+00:00", "meta": {"OBJECT_NAME": "BEIDOU-3 M17 (C36)", "OBJECT_ID": "2018-093A", "EPOCH": "2025-12-03T14:10:37.280064", "MEAN_MOTION": 1.86228161, "ECCENTRICITY": 0.00063465, "INCLINATION": 54.1727, "RA_OF_ASC_NODE": 188.9327, "ARG_OF_PERICENTER": 306.3477, "MEAN_ANOMALY": 234.3147, "EPHEMERIS_TYPE": 0, "CLASSIFICATION_TYPE": "U", "NORAD_CAT_ID": 43706, "ELEMENT_SET_NO": 999, "REV_AT_EPOCH": 4789, "BSTAR": 0, "MEAN_MOTION_DOT": 1.14e-06, "MEAN_MOTION_DDOT": 0}, "tle": {"line1": "1 43706U 18093A   25337.59070926  .00000114  00000+0  00000+0 0  9993", "line2": "2 43706  54.1727 188.9327 0006346 306.3477 234.3147  1.86228161 47892"}}, "geometry": {"type": "Point", "coordinates": [-57.81952300341484, 51.79479372810508]}}, {"type": "Feature", "properties": {"norad_id": 43707, "name": "BEIDOU-3 M18 (C37)", "group": "gnss", "lat": -13.767523323185781, "lon": 19.025853284649212, "alt_km": 21546.518377884706, "timestamp": "2025-12-06T16:45:42.966371+00:00", "meta": {"OBJECT_NAME": "BEIDOU-3 M18 (C37)", "OBJECT_ID": "2018-093B", "EPOCH": "2025-12-04T06:09:34.457184", "MEAN_MOTION": 1.86226429, "ECCENTRICITY": 0.0006367, "INCLINATION": 54.1734, "RA_OF_ASC_NODE": 188.9019, "ARG_OF_PERICENTER": 351.3735, "MEAN_ANOMALY": 8.7081, "EPHEMERIS_TYPE": 0, "CLASSIFICATION_TYPE": "U", "NORAD_CAT_ID": 43707, "ELEMENT_SET_NO": 999, "REV_AT_EPOCH": 4790, "BSTAR": 0, "MEAN_MOTION_DOT": 1.06e-06, "MEAN_MOTION_DDOT": 0}, "tle": {"line1": "1 43707U 18093B   25338.25664881  .00000106  00000+0  00000+0 0  9998", "line2": "2 43707  54.1734 188.9019 0006367 351.3735   8.7081  1.86226429 47906"}}, "geometry": {"type": "Point", "coordinates": [19.025853284649212, -13.767523323185781]}}, {"type": "Feature", "properties": {"norad_id": 43873, "name": "GPS BIII-1  (PRN 04)", "group": "gnss", "lat": 54.03360935686816, "lon": -151.04230832766117, "alt_km": 20182.509949675765, "timestamp": "2025-12-06T16:45:42.966384+00:00", "meta": {"OBJECT_NAME": "GPS BIII-1  (PRN 04)", "OBJECT_ID": "2018-109A", "EPOCH": "2025-12-06T07:17:11.236992", "MEAN_MOTION": 2.00553219, "ECCENTRICITY": 0.00371759, "INCLINATION": 55.5637, "RA_OF_ASC_NODE": 99.801, "ARG_OF_PERICENTER": 194.724, "MEAN_ANOMALY": 341.7092, "EPHEMERIS_TYPE": 0, "CLASSIFICATION_TYPE": "U", "NORAD_CAT_ID": 43873, "ELEMENT_SET_NO": 999, "REV_AT_EPOCH": 5120, "BSTAR": 0, "MEAN_MOTION_DOT": -5e-08, "MEAN_MOTION_DDOT": 0}, "tle": {"line1": "1 43873U 18109A   25340.30360228 -.00000005  00000+0  00000+0 0  9996", "line2": "2 43873  55.5637  99.8010 0037175 194.7240 341.7092  2.00553219 51206"}}, "geometry": {"type": "Point", "coordinates": [-151.04230832766117, 54.03360935686816]}}, {"type": "Feature", "properties": {"norad_id": 44204, "name": "BEIDOU-3 IGSO-1 (C38)", "group": "gnss", "lat": 34.135307099388235, "lon": 64.28219289412321, "alt_km": 35903.66065019137, "timestamp": "2025-12-06T16:45:42.966397+00:00", "meta": {"OBJECT_NAME": "BEIDOU-3 IGSO-1 (C38)", "OBJECT_ID": "2019-023A", "EPOCH": "2025-11-19T14:15:02.708640", "MEAN_MOTION": 1.00252177, "ECCENTRICITY": 0.0026966, "INCLINATION": 58.4003, "RA_OF_ASC_NODE": 39.8168, "ARG_OF_PERICENTER": 221.2202, "MEAN_ANOMALY": 126.9723, "EPHEMERIS_TYPE": 0, "CLASSIFICATION_TYPE": "U", "NORAD_CAT_ID": 44204, "ELEMENT_SET_NO": 999, "REV_AT_EPOCH": 510, "BSTAR": 0, "MEAN_MOTION_DOT": -2.26e-06, "MEAN_MOTION_DDOT": 0}, "tle": {"line1": "1 44204U 19023A   25323.59378135 -.00000226  00000+0  00000+0 0  9994", "line2": "2 44204  58.4003  39.8168 0026966 221.2202 126.9723  1.00252177  5102"}}, "geometry": {"type": "Point", "coordinates": [64.28219289412321, 34.135307099388235]}}, {"type": "Feature", "properties": {"norad_id": 44231, "name": "BEIDOU-2 G8 (C01)", "group": "gnss", "lat": 1.0104438597380958, "lon": 111.75774237397977, "alt_km": 35814.929257046744, "timestamp": "2025-12-06T16:45:42.966412+00:00", "meta": {"OBJECT_NAME": "BEIDOU-2 G8 (C01)", "OBJECT_ID": "2019-027A", "EPOCH": "2025-12-06T05:57:38.626272", "MEAN_MOTION": 1.00269417, "ECCENTRICITY": 0.0008512, "INCLINATION": 1.6446, "RA_OF_ASC_NODE": 74.7141, "ARG_OF_PERICENTER": 254.8767, "MEAN_ANOMALY": 339.6701, "EPHEMERIS_TYPE": 0, "CLASSIFICATION_TYPE": "U", "NORAD_CAT_ID": 44231, "ELEMENT_SET_NO": 999, "REV_AT_EPOCH": 2414, "BSTAR": 0, "MEAN_MOTION_DOT": -2.4e-06, "MEAN_MOTION_DDOT": 0}, "tle": {"line1": "1 44231U 19027A   25340.24836373 -.00000240  00000+0  00000+0 0  9998", "line2": "2 44231   1.6446  74.7141 0008512 254.8767 339.6701  1.00269417 24146"}}, "geometry": {"type": "Point", "coordinates": [111.75774237397977, 1.0104438597380958]}}, {"type": "Feature", "properties": {"norad_id": 44299, "name": "COSMOS 2534 (758)", "group": "gnss", "lat": 56.67610389255775, "lon": -113.98415754232306, "alt_km": 19142.285448463957, "timestamp": "2025-12-06T16:45:42.966423+00:00", "meta": {"OBJECT_NAME": "COSMOS 2534 (758)", "OBJECT_ID": "2019-030A", "EPOCH": "2025-12-05T09:38:44.490912", "MEAN_MOTION": 2.13101983, "ECCENTRICITY": 0.00090311, "INCLINATION": 64.3653, "RA_OF_ASC_NODE": 199.1403, "ARG_OF_PERICENTER": 283.6175, "MEAN_ANOMALY": 229.7103, "EPHEMERIS_TYPE": 0, "CLASSIFICATION_TYPE": "U", "NORAD_CAT_ID": 44299, "ELEMENT_SET_NO": 999, "REV_AT_EPOCH": 5079, "BSTAR": 0, "MEAN_MOTION_DOT": 8.7e-07, "MEAN_MOTION_DDOT": 0}, "tle": {"line1": "1 44299U 19030A   25339.40190383  .00000087  00000+0  00000+0 0  9994", "line2": "2 44299  64.3653 199.1403 0009031 283.6175 229.7103  2.13101983 50792"}}, "geometry": {"type": "Point", "coordinates": [-113.98415754232306, 56.67610389255775]}}, {"type": "Feature", "properties": {"norad_id": 44337, "name": "BEIDOU-3 IGSO-2 (C39)", "group": "gnss", "lat": -51.86862494910502, "lon": 98.07999329780499, "alt_km": 35775.52741920279, "timestamp": "2025-12-06T16:45:42.966435+00:00", "meta": {"OBJECT_NAME": "BEIDOU-3 IGSO-2 (C39)", "OBJECT_ID": "2019-035A", "EPOCH": "2025-12-01T05:17:49.661952", "MEAN_MOTION": 1.00274502, "ECCENTRICITY": 0.00376064, "INCLINATION": 55.2223, "RA_OF_ASC_NODE": 160.6035, "ARG_OF_PERICENTER": 202.2564, "MEAN_ANOMALY": 266.4761, "EPHEMERIS_TYPE": 0, "CLASSIFICATION_TYPE": "U", "NORAD_CAT_ID": 44337, "ELEMENT_SET_NO": 999, "REV_AT_EPOCH": 2368, "BSTAR": 0, "MEAN_MOTION_DOT": -2.5e-07, "MEAN_MOTION_DDOT": 0}, "tle": {"line1": "1 44337U 19035A   25335.22071368 -.00000025  00000+0  00000+0 0  9992", "line2": "2 44337  55.2223 160.6035 0037606 202.2564 266.4761  1.00274502 23688"}}, "geometry": {"type": "Point", "coordinates": [98.07999329780499, -51.86862494910502]}}, {"type": "Feature", "properties": {"norad_id": 44506, "name": "GPS BIII-2  (PRN 18)", "group": "gnss", "lat": -1.3038578843647752, "lon": -22.10249332299788, "alt_km": 20326.29602074589, "timestamp": "2025-12-06T16:45:42.966449+00:00", "meta": {"OBJECT_NAME": "GPS BIII-2  (PRN 18)", "OBJECT_ID": "2019-056A", "EPOCH": "2025-12-05T10:37:28.856640", "MEAN_MOTION": 2.00565628, "ECCENTRICITY": 0.00578088, "INCLINATION": 55.7239, "RA_OF_ASC_NODE": 338.8423, "ARG_OF_PERICENTER": 198.4648, "MEAN_ANOMALY": 333.0445, "EPHEMERIS_TYPE": 0, "CLASSIFICATION_TYPE": "U", "NORAD_CAT_ID": 44506, "ELEMENT_SET_NO": 999, "REV_AT_EPOCH": 4618, "BSTAR": 0, "MEAN_MOTION_DOT": -7.6e-07, "MEAN_MOTION_DDOT": 0}, "tle": {"line1": "1 44506U 19056A   25339.44269510 -.00000076  00000+0  00000+0 0  9995", "line2": "2 44506  55.7239 338.8423 0057808 198.4648 333.0445  2.00565628 46186"}}, "geometry": {"type": "Point", "coordinates": [-22.10249332299788, -1.3038578843647752]}}]}